{
  "links" : {
    "next" : "https://api.nasa.gov/neo/rest/v1/feed?start_date=2004-06-09&end_date=2004-06-09&detailed=true&api_key=t0TVs3DtDT2H8Oy2Zy8m2eVrNsAVKAexjcZXUckd",
    "prev" : "https://api.nasa.gov/neo/rest/v1/feed?start_date=2004-06-07&end_date=2004-06-07&detailed=true&api_key=t0TVs3DtDT2H8Oy2Zy8m2eVrNsAVKAexjcZXUckd",
    "self" : "https://api.nasa.gov/neo/rest/v1/feed?start_date=2004-06-08&end_date=2004-06-08&detailed=true&api_key=t0TVs3DtDT2H8Oy2Zy8m2eVrNsAVKAexjcZXUckd"
  },
  "element_count" : 5,
  "near_earth_objects" : {
    "2004-06-08" : [ {
      "links" : {
        "self" : "https://api.nasa.gov/neo/rest/v1/neo/3591641?api_key=t0TVs3DtDT2H8Oy2Zy8m2eVrNsAVKAexjcZXUckd"
      },
      "neo_reference_id" : "3591641",
      "name" : "(2011 YW10)",
      "nasa_jpl_url" : "http://ssd.jpl.nasa.gov/sbdb.cgi?sstr=3591641",
      "absolute_magnitude_h" : 24.5,
      "estimated_diameter" : {
        "kilometers" : {
          "estimated_diameter_min" : 0.0334622374,
          "estimated_diameter_max" : 0.0748238376
        },
        "meters" : {
          "estimated_diameter_min" : 33.4622374455,
          "estimated_diameter_max" : 74.8238376074
        },
        "miles" : {
          "estimated_diameter_min" : 0.0207924639,
          "estimated_diameter_max" : 0.0464933628
        },
        "feet" : {
          "estimated_diameter_min" : 109.7842471007,
          "estimated_diameter_max" : 245.4850393757
        }
      },
      "is_potentially_hazardous_asteroid" : false,
      "close_approach_data" : [ {
        "close_approach_date" : "2004-06-08",
        "epoch_date_close_approach" : 1086678000000,
        "relative_velocity" : {
          "kilometers_per_second" : "17.1384589306",
          "kilometers_per_hour" : "61698.4521500768",
          "miles_per_hour" : "38337.0187818075"
        },
        "miss_distance" : {
          "astronomical" : "0.4769321825",
          "lunar" : "185.5266113281",
          "kilometers" : "71348040",
          "miles" : "44333616"
        },
        "orbiting_body" : "Earth"
      } ],
      "orbital_data" : {
        "orbit_id" : "16",
        "orbit_determination_date" : "2017-04-06 08:51:42",
        "orbit_uncertainty" : "1",
        "minimum_orbit_intersection" : ".00916049",
        "jupiter_tisserand_invariant" : "6.751",
        "epoch_osculation" : "2458000.5",
        "eccentricity" : ".4429471772258431",
        "semi_major_axis" : ".8642473546889958",
        "inclination" : "2.931703983889707",
        "ascending_node_longitude" : "86.5510702901027",
        "orbital_period" : "293.4644611419074",
        "perihelion_distance" : ".4814314285046031",
        "perihelion_argument" : "217.8584784997962",
        "aphelion_distance" : "1.247063280873389",
        "perihelion_time" : "2457887.978893709364",
        "mean_anomaly" : "138.0323808443753",
        "mean_motion" : "1.226724348833226",
        "equinox" : "J2000"
      }
    }, {
      "links" : {
        "self" : "https://api.nasa.gov/neo/rest/v1/neo/3673918?api_key=t0TVs3DtDT2H8Oy2Zy8m2eVrNsAVKAexjcZXUckd"
      },
      "neo_reference_id" : "3673918",
      "name" : "(2014 MA6)",
      "nasa_jpl_url" : "http://ssd.jpl.nasa.gov/sbdb.cgi?sstr=3673918",
      "absolute_magnitude_h" : 24.5,
      "estimated_diameter" : {
        "kilometers" : {
          "estimated_diameter_min" : 0.0334622374,
          "estimated_diameter_max" : 0.0748238376
        },
        "meters" : {
          "estimated_diameter_min" : 33.4622374455,
          "estimated_diameter_max" : 74.8238376074
        },
        "miles" : {
          "estimated_diameter_min" : 0.0207924639,
          "estimated_diameter_max" : 0.0464933628
        },
        "feet" : {
          "estimated_diameter_min" : 109.7842471007,
          "estimated_diameter_max" : 245.4850393757
        }
      },
      "is_potentially_hazardous_asteroid" : false,
      "close_approach_data" : [ {
        "close_approach_date" : "2004-06-08",
        "epoch_date_close_approach" : 1086678000000,
        "relative_velocity" : {
          "kilometers_per_second" : "2.0650707719",
          "kilometers_per_hour" : "7434.2547789511",
          "miles_per_hour" : "4619.3568097322"
        },
        "miss_distance" : {
          "astronomical" : "0.2366442409",
          "lunar" : "92.0546112061",
          "kilometers" : "35401476",
          "miles" : "21997456"
        },
        "orbiting_body" : "Earth"
      } ],
      "orbital_data" : {
        "orbit_id" : "25",
        "orbit_determination_date" : "2017-04-06 08:40:00",
        "orbit_uncertainty" : "5",
        "minimum_orbit_intersection" : ".0460844",
        "jupiter_tisserand_invariant" : "5.074",
        "epoch_osculation" : "2458000.5",
        "eccentricity" : ".2125323738198827",
        "semi_major_axis" : "1.265518189079216",
        "inclination" : "3.178401996465022",
        "ascending_node_longitude" : "242.5904220308998",
        "orbital_period" : "519.9972109205754",
        "perihelion_distance" : ".996554604241971",
        "perihelion_argument" : "86.27281332705543",
        "aphelion_distance" : "1.534481773916461",
        "perihelion_time" : "2457929.057618426062",
        "mean_anomaly" : "49.46037560679556",
        "mean_motion" : ".6923114055990323",
        "equinox" : "J2000"
      }
    } ]
  }
}